ONEWEB-0305             
1 49093U 21075U   25235.03619601 -.00000388  00000+0 -10313-2 0  9993
2 49093  87.9032  65.1624 0001920 102.3503 257.7844 13.17651821194349
ONEWEB-0308             
1 49094U 21075V   25235.20966995 -.00000416  00000+0 -11923-2 0  9994
2 49094  87.8865  49.8703 0001738  90.2865 269.8463 13.12443685195471
ONEWEB-0309             
1 49095U 21075W   25235.26736299  .00000091  00000+0  20004-3 0  9991
2 49095  87.9027  65.1340 0001333  94.2052 265.9232 13.17649639194342
ONEWEB-0310             
1 49096U 21075X   25235.22426955 -.00000037  00000+0 -13742-3 0  9996
2 49096  87.8861  49.9130 0001639  92.7566 267.3750 13.12443488196103
ONEWEB-0311             
1 49097U 21075Y   25235.04630463  .00000039  00000+0  66082-4 0  9994
2 49097  87.9021  65.1774 0001969  98.9882 261.1473 13.17649730194365
ONEWEB-0312             
1 49098U 21075Z   25235.06148869  .00000019  00000+0  15605-4 0  9994
2 49098  87.9025  65.2062 0001631 101.4038 258.7277 13.17650821194345
ONEWEB-0313             
1 49099U 21075AA  25235.06642785  .00000023  00000+0  24786-4 0  9996
2 49099  87.9016  65.2181 0001772  92.2331 267.9004 13.17648517194335
ONEWEB-0314             
1 49100U 21075AB  25235.26061456 -.00000024  00000+0 -95482-4 0  9995
2 49100  87.9026  65.1148 0001721 101.5232 258.6093 13.17650508194337
ONEWEB-0315             
1 49101U 21075AC  25235.19830574 -.00000342  00000+0 -98555-3 0  9999
2 49101  87.8861  49.8632 0002090  96.9986 263.1381 13.12441031196083
ONEWEB-0316             
1 49102U 21075AD  25235.19184217 -.00000052  00000+0 -16456-3 0  9994
2 49102  87.9150  34.6477 0002005  96.2142 263.9218 13.18687118197934
ONEWEB-0317             
1 49103U 21075AE  25235.19183133 -.00000125  00000+0 -38304-3 0  9998
2 49103  87.8861  49.8790 0001035  74.3647 285.7596 13.12441469196108
ONEWEB-0318             
1 49104U 21075AF  25235.18854220  .00000030  00000+0  44030-4 0  9997
2 49104  87.9152  34.6346 0001982  98.1027 262.0330 13.18684004197890
ONEWEB-0319             
1 49105U 21075AG  25235.27580043  .00000076  00000+0  16160-3 0  9999
2 49105  87.9025  65.1566 0002010  99.8291 260.3068 13.17647521194378
ONEWEB-0323             
1 49106U 21075AH  25232.89497513 -.00000223  00000+0 -65649-3 0  9996
2 49106  87.8859  50.3235 0002138 109.4415 250.6944 13.12442339195167
ONEWEB-0329             
1 49107U 21075AJ  25235.05643895  .00000100  00000+0  22425-3 0  9991
2 49107  87.9020  65.2048 0001829  96.5863 263.5477 13.17649490194328
ONEWEB-0330             
1 49108U 21075AK  25235.05728679  .00000052  00000+0  10185-3 0  9992
2 49108  87.9025  65.2075 0001524  94.4629 265.6677 13.17651219194364
ONEWEB-0292             
1 49186U 21083A   25235.15881242  .00000315  00000+0  82778-3 0  9993
2 49186  87.9002  19.4690 0001938  99.2180 260.9168 13.13467613191801
