[{"OBJECT_NAME":"ONEWEB-0305","OBJECT_ID":"2021-075U","EPOCH":"2025-08-23T00:52:07.335264","MEAN_MOTION":13.17651821,"ECCENTRICITY":0.00019202,"INCLINATION":87.9032,"RA_OF_ASC_NODE":65.1624,"ARG_OF_PERICENTER":102.3503,"MEAN_ANOMALY":257.7844,"EPHEMERIS_TYPE":0,"CLASSIFICATION_TYPE":"U","NORAD_CAT_ID":49093,"ELEMENT_SET_NO":999,"REV_AT_EPOCH":19434,"BSTAR":-0.0010312933,"MEAN_MOTION_DOT":-3.88e-6,"MEAN_MOTION_DDOT":0},{"OBJECT_NAME":"ONEWEB-0308","OBJECT_ID":"2021-075V","EPOCH":"2025-08-23T05:01:55.483680","MEAN_MOTION":13.12443685,"ECCENTRICITY":0.00017385,"INCLINATION":87.8865,"RA_OF_ASC_NODE":49.8703,"ARG_OF_PERICENTER":90.2865,"MEAN_ANOMALY":269.8463,"EPHEMERIS_TYPE":0,"CLASSIFICATION_TYPE":"U","NORAD_CAT_ID":49094,"ELEMENT_SET_NO":999,"REV_AT_EPOCH":19547,"BSTAR":-0.0011922511,"MEAN_MOTION_DOT":-4.16e-6,"MEAN_MOTION_DDOT":0},{"OBJECT_NAME":"ONEWEB-0309","OBJECT_ID":"2021-075W","EPOCH":"2025-08-23T06:25:00.162336","MEAN_MOTION":13.17649639,"ECCENTRICITY":0.00013335,"INCLINATION":87.9027,"RA_OF_ASC_NODE":65.134,"ARG_OF_PERICENTER":94.2052,"MEAN_ANOMALY":265.9232,"EPHEMERIS_TYPE":0,"CLASSIFICATION_TYPE":"U","NORAD_CAT_ID":49095,"ELEMENT_SET_NO":999,"REV_AT_EPOCH":19434,"BSTAR":0.00020003738,"MEAN_MOTION_DOT":9.1e-7,"MEAN_MOTION_DDOT":0},{"OBJECT_NAME":"ONEWEB-0310","OBJECT_ID":"2021-075X","EPOCH":"2025-08-23T05:22:56.889120","MEAN_MOTION":13.12443488,"ECCENTRICITY":0.00016393,"INCLINATION":87.8861,"RA_OF_ASC_NODE":49.913,"ARG_OF_PERICENTER":92.7566,"MEAN_ANOMALY":267.375,"EPHEMERIS_TYPE":0,"CLASSIFICATION_TYPE":"U","NORAD_CAT_ID":49096,"ELEMENT_SET_NO":999,"REV_AT_EPOCH":19610,"BSTAR":-0.00013741666,"MEAN_MOTION_DOT":-3.7e-7,"MEAN_MOTION_DDOT":0},{"OBJECT_NAME":"ONEWEB-0311","OBJECT_ID":"2021-075Y","EPOCH":"2025-08-23T01:06:40.720032","MEAN_MOTION":13.1764973,"ECCENTRICITY":0.00019698,"INCLINATION":87.9021,"RA_OF_ASC_NODE":65.1774,"ARG_OF_PERICENTER":98.9882,"MEAN_ANOMALY":261.1473,"EPHEMERIS_TYPE":0,"CLASSIFICATION_TYPE":"U","NORAD_CAT_ID":49097,"ELEMENT_SET_NO":999,"REV_AT_EPOCH":19436,"BSTAR":6.6082153e-5,"MEAN_MOTION_DOT":3.9e-7,"MEAN_MOTION_DDOT":0},{"OBJECT_NAME":"ONEWEB-0312","OBJECT_ID":"2021-075Z","EPOCH":"2025-08-23T01:28:32.622816","MEAN_MOTION":13.17650821,"ECCENTRICITY":0.00016312,"INCLINATION":87.9025,"RA_OF_ASC_NODE":65.2062,"ARG_OF_PERICENTER":101.4038,"MEAN_ANOMALY":258.7277,"EPHEMERIS_TYPE":0,"CLASSIFICATION_TYPE":"U","NORAD_CAT_ID":49098,"ELEMENT_SET_NO":999,"REV_AT_EPOCH":19434,"BSTAR":1.5605445e-5,"MEAN_MOTION_DOT":1.9e-7,"MEAN_MOTION_DDOT":0},{"OBJECT_NAME":"ONEWEB-0313","OBJECT_ID":"2021-075AA","EPOCH":"2025-08-23T01:35:39.366240","MEAN_MOTION":13.17648517,"ECCENTRICITY":0.00017721,"INCLINATION":87.9016,"RA_OF_ASC_NODE":65.2181,"ARG_OF_PERICENTER":92.2331,"MEAN_ANOMALY":267.9004,"EPHEMERIS_TYPE":0,"CLASSIFICATION_TYPE":"U","NORAD_CAT_ID":49099,"ELEMENT_SET_NO":999,"REV_AT_EPOCH":19433,"BSTAR":2.4786096e-5,"MEAN_MOTION_DOT":2.3e-7,"MEAN_MOTION_DDOT":0},{"OBJECT_NAME":"ONEWEB-0314","OBJECT_ID":"2021-075AB","EPOCH":"2025-08-23T06:15:17.097984","MEAN_MOTION":13.17650508,"ECCENTRICITY":0.00017218,"INCLINATION":87.9026,"RA_OF_ASC_NODE":65.1148,"ARG_OF_PERICENTER":101.5232,"MEAN_ANOMALY":258.6093,"EPHEMERIS_TYPE":0,"CLASSIFICATION_TYPE":"U","NORAD_CAT_ID":49100,"ELEMENT_SET_NO":999,"REV_AT_EPOCH":19433,"BSTAR":-9.5481998e-5,"MEAN_MOTION_DOT":-2.4e-7,"MEAN_MOTION_DDOT":0},{"OBJECT_NAME":"ONEWEB-0315","OBJECT_ID":"2021-075AC","EPOCH":"2025-08-23T04:45:33.615936","MEAN_MOTION":13.12441031,"ECCENTRICITY":0.00020908,"INCLINATION":87.8861,"RA_OF_ASC_NODE":49.8632,"ARG_OF_PERICENTER":96.9986,"MEAN_ANOMALY":263.1381,"EPHEMERIS_TYPE":0,"CLASSIFICATION_TYPE":"U","NORAD_CAT_ID":49101,"ELEMENT_SET_NO":999,"REV_AT_EPOCH":19608,"BSTAR":-0.00098555134,"MEAN_MOTION_DOT":-3.42e-6,"MEAN_MOTION_DDOT":0},{"OBJECT_NAME":"ONEWEB-0316","OBJECT_ID":"2021-075AD","EPOCH":"2025-08-23T04:36:15.163488","MEAN_MOTION":13.18687118,"ECCENTRICITY":0.00020052,"INCLINATION":87.915,"RA_OF_ASC_NODE":34.6477,"ARG_OF_PERICENTER":96.2142,"MEAN_ANOMALY":263.9218,"EPHEMERIS_TYPE":0,"CLASSIFICATION_TYPE":"U","NORAD_CAT_ID":49102,"ELEMENT_SET_NO":999,"REV_AT_EPOCH":19793,"BSTAR":-0.00016455634,"MEAN_MOTION_DOT":-5.2e-7,"MEAN_MOTION_DDOT":0},{"OBJECT_NAME":"ONEWEB-0317","OBJECT_ID":"2021-075AE","EPOCH":"2025-08-23T04:36:14.226912","MEAN_MOTION":13.12441469,"ECCENTRICITY":0.00010357,"INCLINATION":87.8861,"RA_OF_ASC_NODE":49.879,"ARG_OF_PERICENTER":74.3647,"MEAN_ANOMALY":285.7596,"EPHEMERIS_TYPE":0,"CLASSIFICATION_TYPE":"U","NORAD_CAT_ID":49103,"ELEMENT_SET_NO":999,"REV_AT_EPOCH":19610,"BSTAR":-0.0003830413,"MEAN_MOTION_DOT":-1.25e-6,"MEAN_MOTION_DDOT":0},{"OBJECT_NAME":"ONEWEB-0318","OBJECT_ID":"2021-075AF","EPOCH":"2025-08-23T04:31:30.046080","MEAN_MOTION":13.18684004,"ECCENTRICITY":0.00019829,"INCLINATION":87.9152,"RA_OF_ASC_NODE":34.6346,"ARG_OF_PERICENTER":98.1027,"MEAN_ANOMALY":262.033,"EPHEMERIS_TYPE":0,"CLASSIFICATION_TYPE":"U","NORAD_CAT_ID":49104,"ELEMENT_SET_NO":999,"REV_AT_EPOCH":19789,"BSTAR":4.4029842e-5,"MEAN_MOTION_DOT":3.0e-7,"MEAN_MOTION_DDOT":0},{"OBJECT_NAME":"ONEWEB-0319","OBJECT_ID":"2021-075AG","EPOCH":"2025-08-23T06:37:09.157152","MEAN_MOTION":13.17647521,"ECCENTRICITY":0.00020104,"INCLINATION":87.9025,"RA_OF_ASC_NODE":65.1566,"ARG_OF_PERICENTER":99.8291,"MEAN_ANOMALY":260.3068,"EPHEMERIS_TYPE":0,"CLASSIFICATION_TYPE":"U","NORAD_CAT_ID":49105,"ELEMENT_SET_NO":999,"REV_AT_EPOCH":19437,"BSTAR":0.00016159938,"MEAN_MOTION_DOT":7.6e-7,"MEAN_MOTION_DDOT":0},{"OBJECT_NAME":"ONEWEB-0323","OBJECT_ID":"2021-075AH","EPOCH":"2025-08-20T21:28:45.851232","MEAN_MOTION":13.12442339,"ECCENTRICITY":0.0002138,"INCLINATION":87.8859,"RA_OF_ASC_NODE":50.3235,"ARG_OF_PERICENTER":109.4415,"MEAN_ANOMALY":250.6944,"EPHEMERIS_TYPE":0,"CLASSIFICATION_TYPE":"U","NORAD_CAT_ID":49106,"ELEMENT_SET_NO":999,"REV_AT_EPOCH":19516,"BSTAR":-0.00065649,"MEAN_MOTION_DOT":-2.23e-6,"MEAN_MOTION_DDOT":0},{"OBJECT_NAME":"ONEWEB-0329","OBJECT_ID":"2021-075AJ","EPOCH":"2025-08-23T01:21:16.325280","MEAN_MOTION":13.1764949,"ECCENTRICITY":0.00018293,"INCLINATION":87.902,"RA_OF_ASC_NODE":65.2048,"ARG_OF_PERICENTER":96.5863,"MEAN_ANOMALY":263.5477,"EPHEMERIS_TYPE":0,"CLASSIFICATION_TYPE":"U","NORAD_CAT_ID":49107,"ELEMENT_SET_NO":999,"REV_AT_EPOCH":19432,"BSTAR":0.00022425415,"MEAN_MOTION_DOT":1.0e-6,"MEAN_MOTION_DDOT":0},{"OBJECT_NAME":"ONEWEB-0330","OBJECT_ID":"2021-075AK","EPOCH":"2025-08-23T01:22:29.578656","MEAN_MOTION":13.17651219,"ECCENTRICITY":0.00015248,"INCLINATION":87.9025,"RA_OF_ASC_NODE":65.2075,"ARG_OF_PERICENTER":94.4629,"MEAN_ANOMALY":265.6677,"EPHEMERIS_TYPE":0,"CLASSIFICATION_TYPE":"U","NORAD_CAT_ID":49108,"ELEMENT_SET_NO":999,"REV_AT_EPOCH":19436,"BSTAR":0.0001018459,"MEAN_MOTION_DOT":5.2e-7,"MEAN_MOTION_DDOT":0},{"OBJECT_NAME":"ONEWEB-0292","OBJECT_ID":"2021-083A","EPOCH":"2025-08-23T03:48:41.393088","MEAN_MOTION":13.13467613,"ECCENTRICITY":0.00019382,"INCLINATION":87.9002,"RA_OF_ASC_NODE":19.469,"ARG_OF_PERICENTER":99.218,"MEAN_ANOMALY":260.9168,"EPHEMERIS_TYPE":0,"CLASSIFICATION_TYPE":"U","NORAD_CAT_ID":49186,"ELEMENT_SET_NO":999,"REV_AT_EPOCH":19180,"BSTAR":0.00082778488,"MEAN_MOTION_DOT":3.15e-6,"MEAN_MOTION_DDOT":0}]
